[{"OBJECT_NAME":"SL-16 R/B","OBJECT_ID":"1993-059B","EPOCH":"2026-04-01T01:30:32.163264","MEAN_MOTION":14.17234444,"ECCENTRICITY":0.001724,"INCLINATION":70.9912,"RA_OF_ASC_NODE":323.9489,"ARG_OF_PERICENTER":183.7702,"MEAN_ANOMALY":176.3295,"EPHEMERIS_TYPE":0,"CLASSIFICATION_TYPE":"U","NORAD_CAT_ID":22803,"ELEMENT_SET_NO":999,"REV_AT_EPOCH":68270,"BSTAR":-3.2747e-5,"MEAN_MOTION_DOT":-1.14e-6,"MEAN_MOTION_DDOT":0},{"OBJECT_NAME":"ARIANE 40 R/B","OBJECT_ID":"1993-061H","EPOCH":"2026-04-01T04:24:50.450400","MEAN_MOTION":14.32872879,"ECCENTRICITY":0.0010187,"INCLINATION":98.4875,"RA_OF_ASC_NODE":159.6232,"ARG_OF_PERICENTER":211.9108,"MEAN_ANOMALY":148.146,"EPHEMERIS_TYPE":0,"CLASSIFICATION_TYPE":"U","NORAD_CAT_ID":22830,"ELEMENT_SET_NO":999,"REV_AT_EPOCH":69732,"BSTAR":9.6423e-5,"MEAN_MOTION_DOT":2.2e-6,"MEAN_MOTION_DDOT":0},{"OBJECT_NAME":"COSMOS 2278","OBJECT_ID":"1994-023A","EPOCH":"2026-04-01T03:48:19.094112","MEAN_MOTION":14.14374834,"ECCENTRICITY":0.0009262,"INCLINATION":71.0509,"RA_OF_ASC_NODE":128.0911,"ARG_OF_PERICENTER":339.4149,"MEAN_ANOMALY":20.6599,"EPHEMERIS_TYPE":0,"CLASSIFICATION_TYPE":"U","NORAD_CAT_ID":23087,"ELEMENT_SET_NO":999,"REV_AT_EPOCH":64798,"BSTAR":-2.7904e-5,"MEAN_MOTION_DOT":-1.01e-6,"MEAN_MOTION_DDOT":0},{"OBJECT_NAME":"SL-16 R/B","OBJECT_ID":"1994-023B","EPOCH":"2026-04-01T04:40:41.196000","MEAN_MOTION":14.1501777,"ECCENTRICITY":0.0005517,"INCLINATION":71.0026,"RA_OF_ASC_NODE":23.6224,"ARG_OF_PERICENTER":265.3882,"MEAN_ANOMALY":94.6611,"EPHEMERIS_TYPE":0,"CLASSIFICATION_TYPE":"U","NORAD_CAT_ID":23088,"ELEMENT_SET_NO":999,"REV_AT_EPOCH":64927,"BSTAR":0.00016252,"MEAN_MOTION_DOT":2.67e-6,"MEAN_MOTION_DDOT":0},{"OBJECT_NAME":"SL-16 R/B","OBJECT_ID":"1994-074B","EPOCH":"2026-04-01T02:44:27.910752","MEAN_MOTION":14.79434002,"ECCENTRICITY":0.0007509,"INCLINATION":97.7075,"RA_OF_ASC_NODE":121.0207,"ARG_OF_PERICENTER":138.9765,"MEAN_ANOMALY":288.1315,"EPHEMERIS_TYPE":0,"CLASSIFICATION_TYPE":"U","NORAD_CAT_ID":23343,"ELEMENT_SET_NO":999,"REV_AT_EPOCH":69056,"BSTAR":9.2281e-5,"MEAN_MOTION_DOT":6.4e-6,"MEAN_MOTION_DDOT":0},{"OBJECT_NAME":"SL-16 R/B","OBJECT_ID":"1994-077B","EPOCH":"2026-04-01T00:38:01.673664","MEAN_MOTION":14.15568875,"ECCENTRICITY":0.0001762,"INCLINATION":70.9828,"RA_OF_ASC_NODE":305.4985,"ARG_OF_PERICENTER":194.4014,"MEAN_ANOMALY":165.7059,"EPHEMERIS_TYPE":0,"CLASSIFICATION_TYPE":"U","NORAD_CAT_ID":23405,"ELEMENT_SET_NO":999,"REV_AT_EPOCH":61939,"BSTAR":-5.0402e-5,"MEAN_MOTION_DOT":-1.47e-6,"MEAN_MOTION_DDOT":0},{"OBJECT_NAME":"ARIANE 40+ R/B","OBJECT_ID":"1995-021B","EPOCH":"2026-04-01T04:38:46.169952","MEAN_MOTION":14.39788497,"ECCENTRICITY":0.0007882,"INCLINATION":98.4458,"RA_OF_ASC_NODE":162.3669,"ARG_OF_PERICENTER":78.5571,"MEAN_ANOMALY":339.0221,"EPHEMERIS_TYPE":0,"CLASSIFICATION_TYPE":"U","NORAD_CAT_ID":23561,"ELEMENT_SET_NO":999,"REV_AT_EPOCH":62248,"BSTAR":0.0001144,"MEAN_MOTION_DOT":3.15e-6,"MEAN_MOTION_DDOT":0},{"OBJECT_NAME":"SL-16 R/B","OBJECT_ID":"1995-058B","EPOCH":"2026-04-01T04:13:10.981056","MEAN_MOTION":14.15498155,"ECCENTRICITY":0.0010204,"INCLINATION":71.0196,"RA_OF_ASC_NODE":133.0485,"ARG_OF_PERICENTER":84.3301,"MEAN_ANOMALY":275.8985,"EPHEMERIS_TYPE":0,"CLASSIFICATION_TYPE":"U","NORAD_CAT_ID":23705,"ELEMENT_SET_NO":999,"REV_AT_EPOCH":57103,"BSTAR":-6.5333e-5,"MEAN_MOTION_DOT":-1.75e-6,"MEAN_MOTION_DDOT":0},{"OBJECT_NAME":"SL-16 R/B","OBJECT_ID":"1996-051B","EPOCH":"2026-04-01T04:35:32.669376","MEAN_MOTION":14.12422288,"ECCENTRICITY":0.0013291,"INCLINATION":70.7583,"RA_OF_ASC_NODE":127.6133,"ARG_OF_PERICENTER":111.3609,"MEAN_ANOMALY":248.893,"EPHEMERIS_TYPE":0,"CLASSIFICATION_TYPE":"U","NORAD_CAT_ID":24298,"ELEMENT_SET_NO":999,"REV_AT_EPOCH":52482,"BSTAR":9.8502e-5,"MEAN_MOTION_DOT":1.33e-6,"MEAN_MOTION_DDOT":0},{"OBJECT_NAME":"ORBVIEW 2 (SEASTAR)","OBJECT_ID":"1997-037A","EPOCH":"2026-04-01T01:42:08.569728","MEAN_MOTION":14.355109,"ECCENTRICITY":0.0002239,"INCLINATION":98.8605,"RA_OF_ASC_NODE":255.9803,"ARG_OF_PERICENTER":21.7607,"MEAN_ANOMALY":338.3672,"EPHEMERIS_TYPE":0,"CLASSIFICATION_TYPE":"U","NORAD_CAT_ID":24883,"ELEMENT_SET_NO":999,"REV_AT_EPOCH":51168,"BSTAR":0.00014403,"MEAN_MOTION_DOT":3.68e-6,"MEAN_MOTION_DDOT":0},{"OBJECT_NAME":"SL-16 R/B","OBJECT_ID":"1998-043G","EPOCH":"2026-04-01T02:43:40.268064","MEAN_MOTION":14.26055112,"ECCENTRICITY":0.0009065,"INCLINATION":98.8293,"RA_OF_ASC_NODE":44.6413,"ARG_OF_PERICENTER":314.2561,"MEAN_ANOMALY":45.7874,"EPHEMERIS_TYPE":0,"CLASSIFICATION_TYPE":"U","NORAD_CAT_ID":25400,"ELEMENT_SET_NO":999,"REV_AT_EPOCH":44218,"BSTAR":5.5614e-5,"MEAN_MOTION_DOT":8.7e-7,"MEAN_MOTION_DDOT":0},{"OBJECT_NAME":"SL-16 R/B","OBJECT_ID":"1998-045B","EPOCH":"2026-04-01T04:13:00.957792","MEAN_MOTION":14.16193157,"ECCENTRICITY":0.0008115,"INCLINATION":71.0094,"RA_OF_ASC_NODE":134.289,"ARG_OF_PERICENTER":334.419,"MEAN_ANOMALY":25.653,"EPHEMERIS_TYPE":0,"CLASSIFICATION_TYPE":"U","NORAD_CAT_ID":25407,"ELEMENT_SET_NO":999,"REV_AT_EPOCH":43028,"BSTAR":-4.006e-5,"MEAN_MOTION_DOT":-1.27e-6,"MEAN_MOTION_DDOT":0},{"OBJECT_NAME":"ISS (ZARYA)","OBJECT_ID":"1998-067A","EPOCH":"2026-04-01T02:25:28.666272","MEAN_MOTION":15.48690056,"ECCENTRICITY":0.0006224,"INCLINATION":51.6334,"RA_OF_ASC_NODE":321.5639,"ARG_OF_PERICENTER":257.9417,"MEAN_ANOMALY":102.0874,"EPHEMERIS_TYPE":0,"CLASSIFICATION_TYPE":"U","NORAD_CAT_ID":25544,"ELEMENT_SET_NO":999,"REV_AT_EPOCH":55980,"BSTAR":0.00017059,"MEAN_MOTION_DOT":8.862e-5,"MEAN_MOTION_DDOT":0},{"OBJECT_NAME":"CZ-4B R/B","OBJECT_ID":"1999-025C","EPOCH":"2026-04-01T02:21:41.734080","MEAN_MOTION":14.18269842,"ECCENTRICITY":0.0035972,"INCLINATION":98.658,"RA_OF_ASC_NODE":134.8445,"ARG_OF_PERICENTER":280.7063,"MEAN_ANOMALY":133.25,"EPHEMERIS_TYPE":0,"CLASSIFICATION_TYPE":"U","NORAD_CAT_ID":25732,"ELEMENT_SET_NO":999,"REV_AT_EPOCH":39134,"BSTAR":6.3783e-5,"MEAN_MOTION_DOT":8.9e-7,"MEAN_MOTION_DDOT":0},{"OBJECT_NAME":"OKEAN-O","OBJECT_ID":"1999-039A","EPOCH":"2026-04-01T03:50:49.778304","MEAN_MOTION":14.80371111,"ECCENTRICITY":8.68e-5,"INCLINATION":97.9396,"RA_OF_ASC_NODE":150.8182,"ARG_OF_PERICENTER":99.3827,"MEAN_ANOMALY":260.7483,"EPHEMERIS_TYPE":0,"CLASSIFICATION_TYPE":"U","NORAD_CAT_ID":25860,"ELEMENT_SET_NO":999,"REV_AT_EPOCH":43771,"BSTAR":0.00010277,"MEAN_MOTION_DOT":7.32e-6,"MEAN_MOTION_DDOT":0},{"OBJECT_NAME":"SL-16 R/B","OBJECT_ID":"1999-039B","EPOCH":"2026-04-01T02:51:26.612928","MEAN_MOTION":14.81762859,"ECCENTRICITY":0.001481,"INCLINATION":97.9918,"RA_OF_ASC_NODE":150.1769,"ARG_OF_PERICENTER":179.4348,"MEAN_ANOMALY":180.6884,"EPHEMERIS_TYPE":0,"CLASSIFICATION_TYPE":"U","NORAD_CAT_ID":25861,"ELEMENT_SET_NO":999,"REV_AT_EPOCH":44018,"BSTAR":0.00010479,"MEAN_MOTION_DOT":7.74e-6,"MEAN_MOTION_DDOT":0},{"OBJECT_NAME":"DELTA 2 R/B","OBJECT_ID":"1999-041E","EPOCH":"2026-04-01T00:34:36.704352","MEAN_MOTION":14.11889596,"ECCENTRICITY":0.0502633,"INCLINATION":51.7608,"RA_OF_ASC_NODE":212.0602,"ARG_OF_PERICENTER":54.2922,"MEAN_ANOMALY":310.3712,"EPHEMERIS_TYPE":0,"CLASSIFICATION_TYPE":"U","NORAD_CAT_ID":25876,"ELEMENT_SET_NO":999,"REV_AT_EPOCH":36618,"BSTAR":0.00020851,"MEAN_MOTION_DOT":1.052e-5,"MEAN_MOTION_DDOT":0}]
