SL-16 R/B               
1 22803U 93059B   26091.06287226 -.00000114  00000+0 -32747-4 0  9996
2 22803  70.9912 323.9489 0017240 183.7702 176.3295 14.17234444682705
ARIANE 40 R/B           
1 22830U 93061H   26091.18391725  .00000220  00000+0  96423-4 0  9999
2 22830  98.4875 159.6232 0010187 211.9108 148.1460 14.32872879697327
COSMOS 2278             
1 23087U 94023A   26091.15855433 -.00000101  00000+0 -27904-4 0  9999
2 23087  71.0509 128.0911 0009262 339.4149  20.6599 14.14374834647982
SL-16 R/B               
1 23088U 94023B   26091.19492125  .00000267  00000+0  16252-3 0  9993
2 23088  71.0026  23.6224 0005517 265.3882  94.6611 14.15017770649278
SL-16 R/B               
1 23343U 94074B   26091.11421193  .00000640  00000+0  92281-4 0  9994
2 23343  97.7075 121.0207 0007509 138.9765 288.1315 14.79434002690563
SL-16 R/B               
1 23405U 94077B   26091.02640826 -.00000147  00000+0 -50402-4 0  9995
2 23405  70.9828 305.4985 0001762 194.4014 165.7059 14.15568875619394
ARIANE 40+ R/B          
1 23561U 95021B   26091.19358993  .00000315  00000+0  11440-3 0  9990
2 23561  98.4458 162.3669 0007882  78.5571 339.0221 14.39788497622480
SL-16 R/B               
1 23705U 95058B   26091.17582154 -.00000175  00000+0 -65333-4 0  9993
2 23705  71.0196 133.0485 0010204  84.3301 275.8985 14.15498155571036
SL-16 R/B               
1 24298U 96051B   26091.19135034  .00000133  00000+0  98502-4 0  9994
2 24298  70.7583 127.6133 0013291 111.3609 248.8930 14.12422288524826
ORBVIEW 2 (SEASTAR)     
1 24883U 97037A   26091.07093252  .00000368  00000+0  14403-3 0  9998
2 24883  98.8605 255.9803 0002239  21.7607 338.3672 14.35510900511685
SL-16 R/B               
1 25400U 98043G   26091.11366051  .00000087  00000+0  55614-4 0  9995
2 25400  98.8293  44.6413 0009065 314.2561  45.7874 14.26055112442187
SL-16 R/B               
1 25407U 98045B   26091.17570553 -.00000127  00000+0 -40060-4 0  9990
2 25407  71.0094 134.2890 0008115 334.4190  25.6530 14.16193157430283
ISS (ZARYA)             
1 25544U 98067A   26091.10102623  .00008862  00000+0  17059-3 0  9991
2 25544  51.6334 321.5639 0006224 257.9417 102.0874 15.48690056559805
CZ-4B R/B               
1 25732U 99025C   26091.09839970  .00000089  00000+0  63783-4 0  9994
2 25732  98.6580 134.8445 0035972 280.7063 133.2500 14.18269842391347
OKEAN-O                 
1 25860U 99039A   26091.16029836  .00000732  00000+0  10277-3 0  9995
2 25860  97.9396 150.8182 0000868  99.3827 260.7483 14.80371111437710
SL-16 R/B               
1 25861U 99039B   26091.11905802  .00000774  00000+0  10479-3 0  9997
2 25861  97.9918 150.1769 0014810 179.4348 180.6884 14.81762859440189
DELTA 2 R/B             
1 25876U 99041E   26091.02403593  .00001052  00000+0  20851-3 0  9991
2 25876  51.7608 212.0602 0502633  54.2922 310.3712 14.11889596366186
